QZS-1R                  
1 49336U 21096A   24100.38174181 -.00000228  00000+0  00000+0 0  9994
2 49336  35.8037  91.5668 0751640 270.1425 108.5730  1.00282538  8991
